ALOS-2                  
1 39766U 14029A   26189.91695125  .00000996  00000+0  14020-3 0  9994
2 39766  97.9221 286.7703 0001630  91.4844 268.6554 14.79473812654799
KAZEOSAT 2              
1 40010U 14033A   26189.98724488  .00001167  00000+0  14095-3 0  9998
2 40010  97.5405  28.4467 0006999 243.7501 116.2996 14.85498775652198
HODOYOSHI-4             
1 40011U 14033B   26189.95400024  .00001212  00000+0  13662-3 0  9993
2 40011  97.5466  13.7271 0022169 231.3905 128.5328 14.88182239652041
DEIMOS-2                
1 40013U 14033D   26189.95392943  .00001170  00000+0  11546-3 0  9997
2 40013  97.5806  63.6759 0001114  81.7370 278.3977 14.93790337640979
HODOYOSHI-3             
1 40015U 14033F   26189.94320886  .00000629  00000+0  78533-4 0  9993
2 40015  97.6439 352.1110 0031325 283.5087  76.2639 14.85429279650858
SPOT 7                  
1 40053U 14034A   26189.96095081  .00000167  00000+0  43239-4 0  9996
2 40053  98.0615 251.8908 0001533  97.4143 262.7233 14.60977394640315
SKYSAT-B                
1 40072U 14037D   26189.84448721  .00000919  00000+0  10667-3 0  9993
2 40072  98.3850 150.0462 0005061 193.9325 166.1752 14.88081935649183
WORLDVIEW-3 (WV-3)      
1 40115U 14048A   26189.93095737  .00000564  00000+0  72338-4 0  9998
2 40115  97.8558 264.4632 0000804 164.6333 195.4907 14.85057801645133
GAOFEN-2                
1 40118U 14049A   26190.00053969  .00000279  00000+0  42960-4 0  9994
2 40118  98.0095 254.1859 0007835 152.7915 207.3710 14.80922397642461
YAOGAN-21               
1 40143U 14053A   26189.99083458  .00005312  00000+0  20473-3 0  9996
2 40143  97.1468 229.2928 0008460  28.5896 331.5806 15.26701845658283
YAOGAN-22               
1 40275U 14063A   26189.93628709 -.00000029  00000+0  46042-4 0  9993
2 40275 100.7753 341.5732 0006775 138.1586 222.0044 13.15531434562675
ASNARO                  
1 40298U 14070A   26189.95536788  .00004498  00000+0  21327-3 0  9994
2 40298  97.3442 265.4837 0006722 104.6842 255.5139 15.19765614647317
YAOGAN-24               
1 40310U 14072A   26189.97656655  .00000308  00000+0  52206-4 0  9996
2 40310  98.1517 327.5000 0014079 189.6871 170.4069 14.76113570626937
CBERS 4                 
1 40336U 14079A   26189.99327956 -.00000148  00000+0 -36794-4 0  9990
2 40336  98.3519 246.1397 0001045  50.2160 309.9118 14.35514373607087
YAOGAN-26               
1 40362U 14088A   26189.98556571  .00018335  00000+0  34897-3 0  9991
2 40362  97.0652 189.6964 0002796  11.9290 348.2027 15.48261564641071
SMAP                    
1 40376U 15003A   26189.96018471  .00000287  00000+0  64547-4 0  9997
2 40376  98.1280 196.7466 0001544  96.8411 263.2967 14.63385663610807
KOMPSAT-3A              
1 40536U 15014A   26189.93459392  .00021734  00000+0  30117-3 0  9990
2 40536  97.6893 182.9044 0056790  97.6264 263.1445 15.55152618625198
SENTINEL-2A             
1 40697U 15028A   26190.17272285  .00000048  00000+0  34845-4 0  9993
2 40697  98.5682 264.7121 0001250 101.0587 259.0737 14.30813661576878
GAOFEN-8                
1 40701U 15030A   26189.95994390  .00018003  00000+0  36025-3 0  9995
2 40701  97.6906  24.6488 0009882 114.5769 245.6511 15.46780574614814
CARBONITE 1 (CBNT-1)    
1 40718U 15032D   26189.96698902  .00000942  00000+0  12013-3 0  9990
2 40718  97.6523   7.1233 0013380 218.9163 141.1090 14.83654609592575
YAOGAN-27               
1 40878U 15040A   26189.99857065  .00000218  00000+0  68604-3 0  9999
2 40878 100.1169 175.4353 0008385 158.8584 201.2878 13.16072781520537
GAOFEN-9 01             
1 40894U 15047A   26189.99252602  .00000688  00000+0  90481-4 0  9990
2 40894  97.6271 224.6957 0028766  69.8927 290.5379 14.82927035583422
YAOGAN-28               
1 41026U 15064A   26189.93981168  .00004918  00000+0  18403-3 0  9990
2 41026  97.3097 327.7654 0012007 112.2540 247.9975 15.27707375594004
YAOGAN-29               
1 41038U 15069A   26189.96987366  .00000275  00000+0  40418-4 0  9991
2 41038  98.0024 218.6358 0001188  21.2022 338.9240 14.83102849573858
KENT RIDGE 1            
1 41167U 15077B   26189.96928382  .00002882  00000+0  86803-4 0  9990
2 41167  14.9792 103.9726 0008220 187.2665 172.7538 15.23261388584423
GAOFEN-4                
1 41194U 15083A   26189.84857875 -.00000321  00000+0  00000+0 0  9999
2 41194   0.4098  83.8775 0004350 118.1086 136.0035  1.00270598 38749
JASON-3                 
1 41240U 16002A   26189.98334722 -.00000025  00000+0  14783-3 0  9997
2 41240  66.0418  80.0127 0008252 271.4508  88.5566 12.87628320490055
SENTINEL-3A             
1 41335U 16011A   26189.95682812  .00000049  00000+0  38312-4 0  9995
2 41335  98.6239 257.0268 0001402  92.1258 268.0083 14.26738595541163
ZIYUAN 3-02 (ZY 3-02)   
1 41556U 16033A   26189.96141946  .00003467  00000+0  15732-3 0  9990
2 41556  97.3828 265.3169 0013410 207.1140 152.9397 15.21393782561296
CARTOSAT-2C             
1 41599U 16040A   26189.99342851  .00001974  00000+0  96850-4 0  9998
2 41599  97.4470 249.6702 0009989  63.5224 296.7034 15.19230736557025
