OBJECT_NAME,OBJECT_ID,EPOCH,MEAN_MOTION,ECCENTRICITY,INCLINATION,RA_OF_ASC_NODE,ARG_OF_PERICENTER,MEAN_ANOMALY,EPHEMERIS_TYPE,CLASSIFICATION_TYPE,NORAD_CAT_ID,ELEMENT_SET_NO,REV_AT_EPOCH,BSTAR,MEAN_MOTION_DOT,MEAN_MOTION_DDOT
ALOS-2,2014-029A,2026-07-08T22:00:24.588000,14.79473812,.00016302,97.9221,286.7703,91.4844,268.6554,0,U,39766,999,65479,.14020373E-3,.996E-5,0
KAZEOSAT 2,2014-033A,2026-07-08T23:41:37.957632,14.85498775,.00069997,97.5405,28.4467,243.7501,116.2996,0,U,40010,999,65219,.14094828E-3,.1167E-4,0
HODOYOSHI-4,2014-033B,2026-07-08T22:53:45.620736,14.88182239,.00221693,97.5466,13.7271,231.3905,128.5328,0,U,40011,999,65204,.1366219E-3,.1212E-4,0
DEIMOS-2,2014-033D,2026-07-08T22:53:39.502752,14.93790337,.00011146,97.5806,63.6759,81.7370,278.3977,0,U,40013,999,64097,.11546068E-3,.117E-4,0
HODOYOSHI-3,2014-033F,2026-07-08T22:38:13.245504,14.85429279,.00313255,97.6439,352.1110,283.5087,76.2639,0,U,40015,999,65085,.78533004E-4,.629E-5,0
SPOT 7,2014-034A,2026-07-08T23:03:46.149984,14.60977394,.00015338,98.0615,251.8908,97.4143,262.7233,0,U,40053,999,64031,.43238925E-4,.167E-5,0
SKYSAT-B,2014-037D,2026-07-08T20:16:03.694944,14.88081935,.00050615,98.3850,150.0462,193.9325,166.1752,0,U,40072,999,64918,.10666731E-3,.919E-5,0
WORLDVIEW-3 (WV-3),2014-048A,2026-07-08T22:20:34.716768,14.85057801,.00008046,97.8558,264.4632,164.6333,195.4907,0,U,40115,999,64513,.72337715E-4,.564E-5,0
GAOFEN-2,2014-049A,2026-07-09T00:00:46.629216,14.80922397,.00078353,98.0095,254.1859,152.7915,207.3710,0,U,40118,999,64246,.42959955E-4,.279E-5,0
YAOGAN-21,2014-053A,2026-07-08T23:46:48.107712,15.26701845,.00084609,97.1468,229.2928,28.5896,331.5806,0,U,40143,999,65828,.20472771E-3,.5312E-4,0
YAOGAN-22,2014-063A,2026-07-08T22:28:15.204576,13.15531434,.00067757,100.7753,341.5732,138.1586,222.0044,0,U,40275,999,56267,.46041652E-4,-.29E-6,0
ASNARO,2014-070A,2026-07-08T22:55:43.784832,15.19765614,.00067222,97.3442,265.4837,104.6842,255.5139,0,U,40298,999,64731,.21326985E-3,.4498E-4,0
YAOGAN-24,2014-072A,2026-07-08T23:26:15.349920,14.76113570,.00140798,98.1517,327.5000,189.6871,170.4069,0,U,40310,999,62693,.52206155E-4,.308E-5,0
CBERS 4,2014-079A,2026-07-08T23:50:19.353984,14.35514373,.00010459,98.3519,246.1397,50.2160,309.9118,0,U,40336,999,60708,-.36793629E-4,-.148E-5,0
YAOGAN-26,2014-088A,2026-07-08T23:39:12.877344,15.48261564,.00027967,97.0652,189.6964,11.9290,348.2027,0,U,40362,999,64107,.34897052E-3,.18335E-3,0
SMAP,2015-003A,2026-07-08T23:02:39.958944,14.63385663,.00015443,98.1280,196.7466,96.8411,263.2967,0,U,40376,999,61080,.64547368E-4,.287E-5,0
KOMPSAT-3A,2015-014A,2026-07-08T22:25:48.914688,15.55152618,.00567908,97.6893,182.9044,97.6264,263.1445,0,U,40536,999,62519,.30117011E-3,.21734E-3,0
SENTINEL-2A,2015-028A,2026-07-09T04:08:43.254240,14.30813661,.000125,98.5682,264.7121,101.0587,259.0737,0,U,40697,999,57687,.34845E-4,.48E-6,0
GAOFEN-8,2015-030A,2026-07-08T23:02:19.152960,15.46780574,.0009882,97.6906,24.6488,114.5769,245.6511,0,U,40701,999,61481,.36025158E-3,.18003E-3,0
CARBONITE 1 (CBNT-1),2015-032D,2026-07-08T23:12:27.851328,14.83654609,.00133801,97.6523,7.1233,218.9163,141.1090,0,U,40718,999,59257,.1201344E-3,.942E-5,0
YAOGAN-27,2015-040A,2026-07-08T23:57:56.504160,13.16072781,.00083859,100.1169,175.4353,158.8584,201.2878,0,U,40878,999,52053,.68603926E-3,.218E-5,0
GAOFEN-9 01,2015-047A,2026-07-08T23:49:14.248128,14.82927035,.00287663,97.6271,224.6957,69.8927,290.5379,0,U,40894,999,58342,.90480945E-4,.688E-5,0
YAOGAN-28,2015-064A,2026-07-08T22:33:19.729152,15.27707375,.00120073,97.3097,327.7654,112.2540,247.9975,0,U,41026,999,59400,.1840264E-3,.4918E-4,0
YAOGAN-29,2015-069A,2026-07-08T23:16:37.084224,14.83102849,.00011885,98.0024,218.6358,21.2022,338.9240,0,U,41038,999,57385,.40418288E-4,.275E-5,0
KENT RIDGE 1,2015-077B,2026-07-08T23:15:46.122048,15.23261388,.00082204,14.9792,103.9726,187.2665,172.7538,0,U,41167,999,58442,.86803115E-4,.2882E-4,0
GAOFEN-4,2015-083A,2026-07-08T20:21:57.204000,1.00270598,.00043506,0.4098,83.8775,118.1086,136.0035,0,U,41194,999,3874,0,-.321E-5,0
JASON-3,2016-002A,2026-07-08T23:36:01.199808,12.87628320,.00082525,66.0418,80.0127,271.4508,88.5566,0,U,41240,999,49005,.14783349E-3,-.25E-6,0
SENTINEL-3A,2016-011A,2026-07-08T22:57:49.949568,14.26738595,.00014024,98.6239,257.0268,92.1258,268.0083,0,U,41335,999,54116,.38311854E-4,.49E-6,0
ZIYUAN 3-02 (ZY 3-02),2016-033A,2026-07-08T23:04:26.641344,15.21393782,.00134104,97.3828,265.3169,207.1140,152.9397,0,U,41556,999,56129,.15731676E-3,.3467E-4,0
CARTOSAT-2C,2016-040A,2026-07-08T23:50:32.223264,15.19230736,.00099898,97.4470,249.6702,63.5224,296.7034,0,U,41599,999,55702,.96850132E-4,.1974E-4,0
